[{"COMMENT":"GENERATED VIA SPACETRACK.ORG API","ORIGINATOR":"18 SPCS","NORAD_CAT_ID":"43477","OBJECT_NAME":"GRACE-FO 2","OBJECT_TYPE":"PAYLOAD","CLASSIFICATION_TYPE":"U","INTLDES":"18047B","EPOCH":"2023-02-26 21:36:52","EPOCH_MICROSECONDS":"513056","MEAN_MOTION":"15.25245974","ECCENTRICITY":"0.0017424","INCLINATION":"88.9946","RA_OF_ASC_NODE":"4.0761","ARG_OF_PERICENTER":"97.889","MEAN_ANOMALY":"262.4336","EPHEMERIS_TYPE":"0","ELEMENT_SET_NO":"999","REV_AT_EPOCH":"26518","BSTAR":"0.00017632","MEAN_MOTION_DOT":"0.00004477","MEAN_MOTION_DDOT":"0","FILE":"3843368","TLE_LINE0":"0 GRACE-FO 2","TLE_LINE1":"1 43477U 18047B   23057.90060779  .00004477  00000-0  17632-3 0  9994","TLE_LINE2":"2 43477  88.9946   4.0761 0017424  97.8890 262.4336 15.25245974265180","OBJECT_ID":"2018-047B","OBJECT_NUMBER":"43477","SEMIMAJOR_AXIS":"6868.184","PERIOD":"94.411","APOGEE":"502.016","PERIGEE":"478.082","DECAYED":"0"},{"COMMENT":"GENERATED VIA SPACETRACK.ORG API","ORIGINATOR":"18 SPCS","NORAD_CAT_ID":"43477","OBJECT_NAME":"GRACE-FO 2","OBJECT_TYPE":"PAYLOAD","CLASSIFICATION_TYPE":"U","INTLDES":"18047B","EPOCH":"2023-02-27 03:54:46","EPOCH_MICROSECONDS":"986912","MEAN_MOTION":"15.25248428","ECCENTRICITY":"0.001743","INCLINATION":"88.9947","RA_OF_ASC_NODE":"4.0407","ARG_OF_PERICENTER":"97.0616","MEAN_ANOMALY":"263.2615","EPHEMERIS_TYPE":"0","ELEMENT_SET_NO":"999","REV_AT_EPOCH":"26522","BSTAR":"0.00018028","MEAN_MOTION_DOT":"0.00004577","MEAN_MOTION_DDOT":"0","FILE":"3843590","TLE_LINE0":"0 GRACE-FO 2","TLE_LINE1":"1 43477U 18047B   23058.16304383  .00004577  00000-0  18028-3 0  9996","TLE_LINE2":"2 43477  88.9947   4.0407 0017430  97.0616 263.2615 15.25248428265224","OBJECT_ID":"2018-047B","OBJECT_NUMBER":"43477","SEMIMAJOR_AXIS":"6868.177","PERIOD":"94.411","APOGEE":"502.013","PERIGEE":"478.070","DECAYED":"0"},{"COMMENT":"GENERATED VIA SPACETRACK.ORG API","ORIGINATOR":"18 SPCS","NORAD_CAT_ID":"43477","OBJECT_NAME":"GRACE-FO 2","OBJECT_TYPE":"PAYLOAD","CLASSIFICATION_TYPE":"U","INTLDES":"18047B","EPOCH":"2023-02-27 11:47:09","EPOCH_MICROSECONDS":"960864","MEAN_MOTION":"15.25254161","ECCENTRICITY":"0.0017451","INCLINATION":"88.9947","RA_OF_ASC_NODE":"3.9965","ARG_OF_PERICENTER":"96.0421","MEAN_ANOMALY":"264.2817","EPHEMERIS_TYPE":"0","ELEMENT_SET_NO":"999","REV_AT_EPOCH":"26527","BSTAR":"0.00022198","MEAN_MOTION_DOT":"0.0000563","MEAN_MOTION_DDOT":"0","FILE":"3846396","TLE_LINE0":"0 GRACE-FO 2","TLE_LINE1":"1 43477U 18047B   23058.49108751  .00005630  00000-0  22198-3 0  9997","TLE_LINE2":"2 43477  88.9947   3.9965 0017451  96.0421 264.2817 15.25254161265278","OBJECT_ID":"2018-047B","OBJECT_NUMBER":"43477","SEMIMAJOR_AXIS":"6868.159","PERIOD":"94.410","APOGEE":"502.010","PERIGEE":"478.039","DECAYED":"0"},{"COMMENT":"GENERATED VIA SPACETRACK.ORG API","ORIGINATOR":"18 SPCS","NORAD_CAT_ID":"43477","OBJECT_NAME":"GRACE-FO 2","OBJECT_TYPE":"PAYLOAD","CLASSIFICATION_TYPE":"U","INTLDES":"18047B","EPOCH":"2023-02-27 21:14:01","EPOCH_MICROSECONDS":"443552","MEAN_MOTION":"15.25259521","ECCENTRICITY":"0.0017467","INCLINATION":"88.9946","RA_OF_ASC_NODE":"3.9434","ARG_OF_PERICENTER":"94.7712","MEAN_ANOMALY":"265.5532","EPHEMERIS_TYPE":"0","ELEMENT_SET_NO":"999","REV_AT_EPOCH":"26533","BSTAR":"0.00024341","MEAN_MOTION_DOT":"0.00006172","MEAN_MOTION_DDOT":"0","FILE":"3846812","TLE_LINE0":"0 GRACE-FO 2","TLE_LINE1":"1 43477U 18047B   23058.88473893  .00006172  00000-0  24341-3 0  9996","TLE_LINE2":"2 43477  88.9946   3.9434 0017467  94.7712 265.5532 15.25259521265333","OBJECT_ID":"2018-047B","OBJECT_NUMBER":"43477","SEMIMAJOR_AXIS":"6868.143","PERIOD":"94.410","APOGEE":"502.005","PERIGEE":"478.012","DECAYED":"0"},{"COMMENT":"GENERATED VIA SPACETRACK.ORG API","ORIGINATOR":"18 SPCS","NORAD_CAT_ID":"43477","OBJECT_NAME":"GRACE-FO 2","OBJECT_TYPE":"PAYLOAD","CLASSIFICATION_TYPE":"U","INTLDES":"18047B","EPOCH":"2023-02-28 11:24:18","EPOCH_MICROSECONDS":"470592","MEAN_MOTION":"15.25266523","ECCENTRICITY":"0.001747","INCLINATION":"88.9945","RA_OF_ASC_NODE":"3.8637","ARG_OF_PERICENTER":"92.9477","MEAN_ANOMALY":"267.377","EPHEMERIS_TYPE":"0","ELEMENT_SET_NO":"999","REV_AT_EPOCH":"26542","BSTAR":"0.00024188","MEAN_MOTION_DOT":"0.00006134","MEAN_MOTION_DDOT":"0","FILE":"3847380","TLE_LINE0":"0 GRACE-FO 2","TLE_LINE1":"1 43477U 18047B   23059.47521378  .00006134  00000-0  24188-3 0  9991","TLE_LINE2":"2 43477  88.9945   3.8637 0017470  92.9477 267.3770 15.25266523265422","OBJECT_ID":"2018-047B","OBJECT_NUMBER":"43477","SEMIMAJOR_AXIS":"6868.122","PERIOD":"94.410","APOGEE":"501.986","PERIGEE":"477.989","DECAYED":"0"},{"COMMENT":"GENERATED VIA SPACETRACK.ORG API","ORIGINATOR":"18 SPCS","NORAD_CAT_ID":"43477","OBJECT_NAME":"GRACE-FO 2","OBJECT_TYPE":"PAYLOAD","CLASSIFICATION_TYPE":"U","INTLDES":"18047B","EPOCH":"2023-02-28 12:58:47","EPOCH_MICROSECONDS":"30304","MEAN_MOTION":"15.25266271","ECCENTRICITY":"0.0017471","INCLINATION":"88.9945","RA_OF_ASC_NODE":"3.8549","ARG_OF_PERICENTER":"92.7591","MEAN_ANOMALY":"267.5657","EPHEMERIS_TYPE":"0","ELEMENT_SET_NO":"999","REV_AT_EPOCH":"26543","BSTAR":"0.00022169","MEAN_MOTION_DOT":"0.00005625","MEAN_MOTION_DDOT":"0","FILE":"3847542","TLE_LINE0":"0 GRACE-FO 2","TLE_LINE1":"1 43477U 18047B   23059.54082211  .00005625  00000-0  22169-3 0  9998","TLE_LINE2":"2 43477  88.9945   3.8549 0017471  92.7591 267.5657 15.25266271265437","OBJECT_ID":"2018-047B","OBJECT_NUMBER":"43477","SEMIMAJOR_AXIS":"6868.123","PERIOD":"94.410","APOGEE":"501.987","PERIGEE":"477.989","DECAYED":"0"},{"COMMENT":"GENERATED VIA SPACETRACK.ORG API","ORIGINATOR":"18 SPCS","NORAD_CAT_ID":"43477","OBJECT_NAME":"GRACE-FO 2","OBJECT_TYPE":"PAYLOAD","CLASSIFICATION_TYPE":"U","INTLDES":"18047B","EPOCH":"2023-02-28 20:51:09","EPOCH_MICROSECONDS":"724320","MEAN_MOTION":"15.25269473","ECCENTRICITY":"0.001747","INCLINATION":"88.9946","RA_OF_ASC_NODE":"3.8106","ARG_OF_PERICENTER":"91.7603","MEAN_ANOMALY":"268.5646","EPHEMERIS_TYPE":"0","ELEMENT_SET_NO":"999","REV_AT_EPOCH":"26548","BSTAR":"0.00020973","MEAN_MOTION_DOT":"0.00005323","MEAN_MOTION_DDOT":"0","FILE":"3847656","TLE_LINE0":"0 GRACE-FO 2","TLE_LINE1":"1 43477U 18047B   23059.86886255  .00005323  00000-0  20973-3 0  9999","TLE_LINE2":"2 43477  88.9946   3.8106 0017470  91.7603 268.5646 15.25269473265480","OBJECT_ID":"2018-047B","OBJECT_NUMBER":"43477","SEMIMAJOR_AXIS":"6868.113","PERIOD":"94.410","APOGEE":"501.977","PERIGEE":"477.980","DECAYED":"0"},{"COMMENT":"GENERATED VIA SPACETRACK.ORG API","ORIGINATOR":"18 SPCS","NORAD_CAT_ID":"43477","OBJECT_NAME":"GRACE-FO 2","OBJECT_TYPE":"PAYLOAD","CLASSIFICATION_TYPE":"U","INTLDES":"18047B","EPOCH":"2023-03-01 18:53:48","EPOCH_MICROSECONDS":"907968","MEAN_MOTION":"15.25279038","ECCENTRICITY":"0.0017474","INCLINATION":"88.9948","RA_OF_ASC_NODE":"3.6867","ARG_OF_PERICENTER":"88.862","MEAN_ANOMALY":"271.463","EPHEMERIS_TYPE":"0","ELEMENT_SET_NO":"999","REV_AT_EPOCH":"26562","BSTAR":"0.00019811","MEAN_MOTION_DOT":"0.00005031","MEAN_MOTION_DDOT":"0","FILE":"3848601","TLE_LINE0":"0 GRACE-FO 2","TLE_LINE1":"1 43477U 18047B   23060.78737162  .00005031  00000-0  19811-3 0  9999","TLE_LINE2":"2 43477  88.9948   3.6867 0017474  88.8620 271.4630 15.25279038265624","OBJECT_ID":"2018-047B","OBJECT_NUMBER":"43477","SEMIMAJOR_AXIS":"6868.085","PERIOD":"94.409","APOGEE":"501.951","PERIGEE":"477.948","DECAYED":"0"},{"COMMENT":"GENERATED VIA SPACETRACK.ORG API","ORIGINATOR":"18 SPCS","NORAD_CAT_ID":"43477","OBJECT_NAME":"GRACE-FO 2","OBJECT_TYPE":"PAYLOAD","CLASSIFICATION_TYPE":"U","INTLDES":"18047B","EPOCH":"2023-03-01 20:28:17","EPOCH_MICROSECONDS":"392512","MEAN_MOTION":"15.25279787","ECCENTRICITY":"0.0017468","INCLINATION":"88.9948","RA_OF_ASC_NODE":"3.6779","ARG_OF_PERICENTER":"88.682","MEAN_ANOMALY":"271.6429","EPHEMERIS_TYPE":"0","ELEMENT_SET_NO":"999","REV_AT_EPOCH":"26563","BSTAR":"0.00019679","MEAN_MOTION_DOT":"0.00004998","MEAN_MOTION_DDOT":"0","FILE":"3848834","TLE_LINE0":"0 GRACE-FO 2","TLE_LINE1":"1 43477U 18047B   23060.85297908  .00004998  00000-0  19679-3 0  9999","TLE_LINE2":"2 43477  88.9948   3.6779 0017468  88.6820 271.6429 15.25279787265639","OBJECT_ID":"2018-047B","OBJECT_NUMBER":"43477","SEMIMAJOR_AXIS":"6868.082","PERIOD":"94.409","APOGEE":"501.945","PERIGEE":"477.950","DECAYED":"0"},{"COMMENT":"GENERATED VIA SPACETRACK.ORG API","ORIGINATOR":"18 SPCS","NORAD_CAT_ID":"43477","OBJECT_NAME":"GRACE-FO 2","OBJECT_TYPE":"PAYLOAD","CLASSIFICATION_TYPE":"U","INTLDES":"18047B","EPOCH":"2023-03-02 20:05:24","EPOCH_MICROSECONDS":"452448","MEAN_MOTION":"15.25290835","ECCENTRICITY":"0.0017452","INCLINATION":"88.9949","RA_OF_ASC_NODE":"3.5452","ARG_OF_PERICENTER":"85.596","MEAN_ANOMALY":"274.7282","EPHEMERIS_TYPE":"0","ELEMENT_SET_NO":"999","REV_AT_EPOCH":"26578","BSTAR":"0.00020519","MEAN_MOTION_DOT":"0.00005212","MEAN_MOTION_DDOT":"0","FILE":"3849286","TLE_LINE0":"0 GRACE-FO 2","TLE_LINE1":"1 43477U 18047B   23061.83708857  .00005212  00000-0  20519-3 0  9993","TLE_LINE2":"2 43477  88.9949   3.5452 0017452  85.5960 274.7282 15.25290835265785","OBJECT_ID":"2018-047B","OBJECT_NUMBER":"43477","SEMIMAJOR_AXIS":"6868.049","PERIOD":"94.408","APOGEE":"501.900","PERIGEE":"477.928","DECAYED":"0"}]